[
    {
        "Altitude(m)": 560519.1878921184,
        "Argument of Periapsis(deg)": 0.026491964442854003,
        "Eccentricity": 0.0,
        "Inclination(deg)": 53.0,
        "Latitude(deg)": -24.708373287886367,
        "Longitude(deg)": 51.98765645371346,
        "Mean Anomaly(deg)": -148.7244285296897,
        "RAAN(deg)": 314.96057347411204,
        "Satellite Name": "Starlink Shell 1 1396",
        "Satellite Number": 1396,
        "Semi-Major Axis(m)": 6931778.249405717,
        "Time(s)": 760
    },
    {
        "Altitude(m)": 560688.6692596051,
        "Argument of Periapsis(deg)": 0.02684054292236524,
        "Eccentricity": 0.0,
        "Inclination(deg)": 53.0,
        "Latitude(deg)": -25.17920340843639,
        "Longitude(deg)": 52.40327639225646,
        "Mean Anomaly(deg)": -148.09759732613293,
        "RAAN(deg)": 314.9600547040346,
        "Satellite Name": "Starlink Shell 1 1396",
        "Satellite Number": 1396,
        "Semi-Major Axis(m)": 6931778.249405717,
        "Time(s)": 770
    },
    {
        "Altitude(m)": 560858.9809010492,
        "Argument of Periapsis(deg)": 0.027189121401876473,
        "Eccentricity": 0.0,
        "Inclination(deg)": 53.0,
        "Latitude(deg)": -25.648568163543278,
        "Longitude(deg)": 52.82239795277277,
        "Mean Anomaly(deg)": -147.4707661225762,
        "RAAN(deg)": 314.95953593395717,
        "Satellite Name": "Starlink Shell 1 1396",
        "Satellite Number": 1396,
        "Semi-Major Axis(m)": 6931778.249405717,
        "Time(s)": 780
    },
    {
        "Altitude(m)": 561030.0608479318,
        "Argument of Periapsis(deg)": 0.02753769988138771,
        "Eccentricity": 0.0,
        "Inclination(deg)": 53.0,
        "Latitude(deg)": -26.11642598426131,
        "Longitude(deg)": 53.245112952280095,
        "Mean Anomaly(deg)": -146.84393491901952,
        "RAAN(deg)": 314.95901716387965,
        "Satellite Name": "Starlink Shell 1 1396",
        "Satellite Number": 1396,
        "Semi-Major Axis(m)": 6931778.249405717,
        "Time(s)": 790
    },
    {
        "Altitude(m)": 561201.8466407796,
        "Argument of Periapsis(deg)": 0.02788627836089895,
        "Eccentricity": 0.0,
        "Inclination(deg)": 53.0,
        "Latitude(deg)": -26.582734428449807,
        "Longitude(deg)": 53.67151397066256,
        "Mean Anomaly(deg)": -146.21710371546277,
        "RAAN(deg)": 314.95849839380213,
        "Satellite Name": "Starlink Shell 1 1396",
        "Satellite Number": 1396,
        "Semi-Major Axis(m)": 6931778.249405717,
        "Time(s)": 800
    },
    {
        "Altitude(m)": 561374.2753571712,
        "Argument of Periapsis(deg)": 0.02823485684041019,
        "Eccentricity": 0.0,
        "Inclination(deg)": 53.0,
        "Latitude(deg)": -27.04745015351746,
        "Longitude(deg)": 54.101694865944175,
        "Mean Anomaly(deg)": -145.59027251190602,
        "RAAN(deg)": 314.9579796237247,
        "Satellite Name": "Starlink Shell 1 1396",
        "Satellite Number": 1396,
        "Semi-Major Axis(m)": 6931778.249405717,
        "Time(s)": 810
    },
    {
        "Altitude(m)": 561547.283639952,
        "Argument of Periapsis(deg)": 0.028583435319921423,
        "Eccentricity": 0.0,
        "Inclination(deg)": 53.0,
        "Latitude(deg)": -27.510528888660048,
        "Longitude(deg)": 54.53575128756898,
        "Mean Anomaly(deg)": -144.96344130834933,
        "RAAN(deg)": 314.95746085364726,
        "Satellite Name": "Starlink Shell 1 1396",
        "Satellite Number": 1396,
        "Semi-Major Axis(m)": 6931778.249405717,
        "Time(s)": 820
    },
    {
        "Altitude(m)": 561720.8077256748,
        "Argument of Periapsis(deg)": 0.028932013799432665,
        "Eccentricity": 0.0,
        "Inclination(deg)": 53.0,
        "Latitude(deg)": -27.97192540660088,
        "Longitude(deg)": 54.973779674629334,
        "Mean Anomaly(deg)": -144.33661010479267,
        "RAAN(deg)": 314.95694208356974,
        "Satellite Name": "Starlink Shell 1 1396",
        "Satellite Number": 1396,
        "Semi-Major Axis(m)": 6931778.249405717,
        "Time(s)": 830
    },
    {
        "Altitude(m)": 561894.7834731905,
        "Argument of Periapsis(deg)": 0.029280592278943897,
        "Eccentricity": 0.0,
        "Inclination(deg)": 53.0,
        "Latitude(deg)": -28.43159349484085,
        "Longitude(deg)": 55.415877764582895,
        "Mean Anomaly(deg)": -143.70977890123595,
        "RAAN(deg)": 314.9564233134923,
        "Satellite Name": "Starlink Shell 1 1396",
        "Satellite Number": 1396,
        "Semi-Major Axis(m)": 6931778.249405717,
        "Time(s)": 840
    },
    {
        "Altitude(m)": 562069.1463924282,
        "Argument of Periapsis(deg)": 0.029629170758455132,
        "Eccentricity": 0.0,
        "Inclination(deg)": 53.0,
        "Latitude(deg)": -28.88948592643445,
        "Longitude(deg)": 55.86214509937191,
        "Mean Anomaly(deg)": -143.08294769767917,
        "RAAN(deg)": 314.9559045434148,
        "Satellite Name": "Starlink Shell 1 1396",
        "Satellite Number": 1396,
        "Semi-Major Axis(m)": 6931778.249405717,
        "Time(s)": 850
    },
    {
        "Altitude(m)": 562243.8316733234,
        "Argument of Periapsis(deg)": 0.02997774923796637,
        "Eccentricity": 0.0,
        "Inclination(deg)": 53.0,
        "Latitude(deg)": -29.345554430310063,
        "Longitude(deg)": 56.312681847745765,
        "Mean Anomaly(deg)": -142.45611649412248,
        "RAAN(deg)": 314.9553857733373,
        "Satellite Name": "Starlink Shell 1 1396",
        "Satellite Number": 1396,
        "Semi-Major Axis(m)": 6931778.249405717,
        "Time(s)": 860
    },
    {
        "Altitude(m)": 562418.7742148981,
        "Argument of Periapsis(deg)": 0.030326327717477602,
        "Eccentricity": 0.0,
        "Inclination(deg)": 53.0,
        "Latitude(deg)": -29.799749661149598,
        "Longitude(deg)": 56.76759014596394,
        "Mean Anomaly(deg)": -141.82928529056576,
        "RAAN(deg)": 314.9548670032599,
        "Satellite Name": "Starlink Shell 1 1396",
        "Satellite Number": 1396,
        "Semi-Major Axis(m)": 6931778.249405717,
        "Time(s)": 870
    },
    {
        "Altitude(m)": 562593.9086544524,
        "Argument of Periapsis(deg)": 0.030674906196988847,
        "Eccentricity": 0.0,
        "Inclination(deg)": 53.0,
        "Latitude(deg)": -30.252021168857528,
        "Longitude(deg)": 57.226972913711016,
        "Mean Anomaly(deg)": -141.2024540870091,
        "RAAN(deg)": 314.9543482331824,
        "Satellite Name": "Starlink Shell 1 1396",
        "Satellite Number": 1396,
        "Semi-Major Axis(m)": 6931778.249405717,
        "Time(s)": 880
    },
    {
        "Altitude(m)": 562769.1693968792,
        "Argument of Periapsis(deg)": 0.031023484676500086,
        "Eccentricity": 0.0,
        "Inclination(deg)": 53.0,
        "Latitude(deg)": -30.702317367642003,
        "Longitude(deg)": 57.69093434737024,
        "Mean Anomaly(deg)": -140.5756228834523,
        "RAAN(deg)": 314.9538294631049,
        "Satellite Name": "Starlink Shell 1 1396",
        "Satellite Number": 1396,
        "Semi-Major Axis(m)": 6931778.249405717,
        "Time(s)": 890
    },
    {
        "Altitude(m)": 562944.4906440703,
        "Argument of Periapsis(deg)": 0.03137206315601132,
        "Eccentricity": 0.0,
        "Inclination(deg)": 53.0,
        "Latitude(deg)": -31.150585504741812,
        "Longitude(deg)": 58.15958040939043,
        "Mean Anomaly(deg)": -139.9487916798956,
        "RAAN(deg)": 314.9533106930275,
        "Satellite Name": "Starlink Shell 1 1396",
        "Satellite Number": 1396,
        "Semi-Major Axis(m)": 6931778.249405717,
        "Time(s)": 900
    },
    {
        "Altitude(m)": 563119.8064244278,
        "Argument of Periapsis(deg)": 0.03172064163552255,
        "Eccentricity": 0.0,
        "Inclination(deg)": 53.0,
        "Latitude(deg)": -31.596771628838923,
        "Longitude(deg)": 58.63301780056406,
        "Mean Anomaly(deg)": -139.3219604763389,
        "RAAN(deg)": 314.95279192295,
        "Satellite Name": "Starlink Shell 1 1396",
        "Satellite Number": 1396,
        "Semi-Major Axis(m)": 6931778.249405717,
        "Time(s)": 910
    },
    {
        "Altitude(m)": 563295.0506224,
        "Argument of Periapsis(deg)": 0.0320692201150338,
        "Eccentricity": 0.0,
        "Inclination(deg)": 53.0,
        "Latitude(deg)": -32.04082055819347,
        "Longitude(deg)": 59.11135444062967,
        "Mean Anomaly(deg)": -138.69512927278222,
        "RAAN(deg)": 314.95227315287246,
        "Satellite Name": "Starlink Shell 1 1396",
        "Satellite Number": 1396,
        "Semi-Major Axis(m)": 6931778.249405717,
        "Time(s)": 920
    },
    {
        "Altitude(m)": 563470.1570081387,
        "Argument of Periapsis(deg)": 0.032417798594545036,
        "Eccentricity": 0.0,
        "Inclination(deg)": 53.0,
        "Latitude(deg)": -32.48267584855154,
        "Longitude(deg)": 59.59469994397763,
        "Mean Anomaly(deg)": -138.0682980692255,
        "RAAN(deg)": 314.951754382795,
        "Satellite Name": "Starlink Shell 1 1396",
        "Satellite Number": 1396,
        "Semi-Major Axis(m)": 6931778.249405717,
        "Time(s)": 930
    },
    {
        "Altitude(m)": 563645.0592671343,
        "Argument of Periapsis(deg)": 0.03276637707405627,
        "Eccentricity": 0.0,
        "Inclination(deg)": 53.0,
        "Latitude(deg)": -32.92227976088022,
        "Longitude(deg)": 60.08316457721959,
        "Mean Anomaly(deg)": -137.44146686566873,
        "RAAN(deg)": 314.95123561271754,
        "Satellite Name": "Starlink Shell 1 1396",
        "Satellite Number": 1396,
        "Semi-Major Axis(m)": 6931778.249405717,
        "Time(s)": 940
    }
]